[{"OBJECT_NAME":"YAOGAN-17 01B","OBJECT_ID":"2013-046B","EPOCH":"2026-03-09T23:28:17.968800","MEAN_MOTION":13.45462067,"ECCENTRICITY":0.04175789,"INCLINATION":63.3912,"RA_OF_ASC_NODE":346.726,"ARG_OF_PERICENTER":10.9429,"MEAN_ANOMALY":350.0341,"EPHEMERIS_TYPE":0,"CLASSIFICATION_TYPE":"U","NORAD_CAT_ID":39240,"ELEMENT_SET_NO":999,"REV_AT_EPOCH":61498,"BSTAR":9.3249137e-5,"MEAN_MOTION_DOT":3.0e-8,"MEAN_MOTION_DDOT":0},{"OBJECT_NAME":"SL-8 R\/B","OBJECT_ID":"1990-017B","EPOCH":"2026-03-09T15:30:33.150528","MEAN_MOTION":13.7587642,"ECCENTRICITY":0.00414788,"INCLINATION":82.9525,"RA_OF_ASC_NODE":124.7994,"ARG_OF_PERICENTER":258.1565,"MEAN_ANOMALY":101.4939,"EPHEMERIS_TYPE":0,"CLASSIFICATION_TYPE":"U","NORAD_CAT_ID":20509,"ELEMENT_SET_NO":999,"REV_AT_EPOCH":80824,"BSTAR":1.4417107e-5,"MEAN_MOTION_DOT":2.9e-7,"MEAN_MOTION_DDOT":0}]
